[{"OBJECT_NAME":"STARLINK-6295","OBJECT_ID":"2023-065BD","EPOCH":"2026-03-09T22:00:01.999584","MEAN_MOTION":15.11821362,"ECCENTRICITY":0.00018382,"INCLINATION":43.0002,"RA_OF_ASC_NODE":221.4104,"ARG_OF_PERICENTER":290.5312,"MEAN_ANOMALY":198.1737,"EPHEMERIS_TYPE":0,"CLASSIFICATION_TYPE":"U","NORAD_CAT_ID":56554,"ELEMENT_SET_NO":999,"REV_AT_EPOCH":577,"BSTAR":0.0053178278,"MEAN_MOTION_DOT":0.00093454,"MEAN_MOTION_DDOT":0},{"OBJECT_NAME":"FENGYUN 1C DEB","OBJECT_ID":"1999-025EB","EPOCH":"2026-03-09T21:27:48.971520","MEAN_MOTION":14.9364801,"ECCENTRICITY":0.00856057,"INCLINATION":99.085,"RA_OF_ASC_NODE":69.4314,"ARG_OF_PERICENTER":339.4426,"MEAN_ANOMALY":20.3352,"EPHEMERIS_TYPE":0,"CLASSIFICATION_TYPE":"U","NORAD_CAT_ID":29833,"ELEMENT_SET_NO":999,"REV_AT_EPOCH":1871,"BSTAR":0.0015409165,"MEAN_MOTION_DOT":0.00017454,"MEAN_MOTION_DDOT":0}]
